NORAD_CAT_ID,OBJECT_NAME,OBJECT_TYPE,EPOCH,MEAN_MOTION,ECCENTRICITY,INCLINATION,RA_OF_ASC_NODE,ARG_OF_PERICENTER,MEAN_ANOMALY,BSTAR,MEAN_MOTION_DOT,MEAN_MOTION_DDOT,TLE_LINE0,TLE_LINE1,TLE_LINE2,SEMIMAJOR_AXIS,PERIOD,APOGEE,PERIGEE,DECAYED
56489.0,STARLINK-5923,PAYLOAD,2024-04-29 10:02:49,14.98344463,0.0002741,70.0009,17.1686,262.2616,97.8231,-0.00020586,-2.549e-05,0.0,0 STARLINK-5923,1 56489U 23064AT  24120.41863158 -.00002549  00000-0 -20586-3 0  9998,2 56489  70.0009  17.1686 0002741 262.2616  97.8231 14.98344463 54845,6950.148,96.106,573.918,570.108,0.0
56489.0,STARLINK-5923,PAYLOAD,2024-04-29 21:15:46,14.98325751,0.0002759,70.0006,15.9901,266.4283,93.656,0.00014302,1.614e-05,0.0,0 STARLINK-5923,1 56489U 23064AT  24120.88595552  .00001614  00000-0  14302-3 0  9998,2 56489  70.0006  15.9901 0002759 266.4283  93.6560 14.98325751 54919,6950.206,96.107,573.989,570.153,0.0
56489.0,STARLINK-5923,PAYLOAD,2024-04-29 22:51:54,14.98326459,0.0002761,70.0006,15.8218,266.4572,93.6271,0.00014733,1.665e-05,0.0,0 STARLINK-5923,1 56489U 23064AT  24120.95271513  .00001665  00000-0  14733-3 0  9998,2 56489  70.0006  15.8218 0002761 266.4572  93.6271 14.98326459 54569,6950.204,96.107,573.988,570.15,0.0
56489.0,STARLINK-5923,PAYLOAD,2024-04-30 10:04:51,14.98328074,0.0002774,70.0005,14.6436,267.5055,92.5787,6.7016e-05,7.07e-06,0.0,0 STARLINK-5923,1 56489U 23064AT  24121.42003649  .00000707  00000-0  67016-4 0  9993,2 56489  70.0005  14.6436 0002774 267.5055  92.5787 14.98328074 54632,6950.199,96.107,573.992,570.136,0.0
56489.0,STARLINK-5923,PAYLOAD,2024-04-30 22:53:55,14.98334191,0.0002837,70.0004,13.2969,267.9174,92.166,-2.0688e-05,-3.4e-06,0.0,0 STARLINK-5923,1 56489U 23064AT  24121.95411425 -.00000340  00000-0 -20688-4 0  9995,2 56489  70.0004  13.2969 0002837 267.9174  92.1660 14.98334191 54715,6950.18,96.107,574.017,570.073,0.0
56489.0,STARLINK-5923,PAYLOAD,2024-05-01 02:06:11,14.98333789,0.0002848,70.0003,12.9602,267.783,92.3003,-2.4675e-05,-3.87e-06,0.0,0 STARLINK-5923,1 56489U 23064AT  24122.08763420 -.00000387  00000-0 -24675-4 0  9996,2 56489  70.0003  12.9602 0002848 267.7830  92.3003 14.98333789 55090,6950.181,96.107,574.026,570.067,0.0
56489.0,STARLINK-5923,PAYLOAD,2024-05-01 10:06:51,14.98342644,0.0002933,70.0001,12.1185,268.1166,91.9657,8.197e-05,8.85e-06,0.0,0 STARLINK-5923,1 56489U 23064AT  24122.42142402  .00000885  00000-0  81970-4 0  9997,2 56489  70.0001  12.1185 0002933 268.1166  91.9657 14.98342644 55144,6950.154,96.106,574.057,569.98,0.0
56489.0,STARLINK-5923,PAYLOAD,2024-05-01 22:55:54,14.98350606,0.0003023,69.9999,10.7715,267.765,92.3163,0.00015831,1.797e-05,0.0,0 STARLINK-5923,1 56489U 23064AT  24122.95549135  .00001797  00000-0  15831-3 0  9994,2 56489  69.9999  10.7715 0003023 267.7650  92.3163 14.98350606 54866,6950.129,96.106,574.095,569.893,0.0
56489.0,STARLINK-5923,PAYLOAD,2024-05-02 02:08:10,14.98351357,0.0003021,69.9999,10.4348,267.7833,92.298,0.00016176,1.839e-05,0.0,0 STARLINK-5923,1 56489U 23064AT  24123.08900910  .00001839  00000-0  16176-3 0  9991,2 56489  69.9999  10.4348 0003021 267.7833  92.2980 14.98351357 55249,6950.127,96.106,574.091,569.892,0.0
56489.0,STARLINK-5923,PAYLOAD,2024-05-02 10:08:51,14.98338314,0.0002719,69.9996,9.5932,274.9745,85.1104,-8.6657e-06,-1.96e-06,0.0,0 STARLINK-5923,1 56489U 23064AT  24123.42282015 -.00000196  00000-0 -86657-5 0  9998,2 56489  69.9996   9.5932 0002719 274.9745  85.1104 14.98338314 55291,6950.167,96.106,573.922,570.142,0.0
56489.0,STARLINK-5923,PAYLOAD,2024-05-02 21:21:49,14.98319088,0.0003024,69.9997,8.4149,270.9742,89.107,-0.00011852,-1.506e-05,0.0,0 STARLINK-5923,1 56489U 23064AT  24123.89015433 -.00001506  00000-0 -11852-3 0  9996,2 56489  69.9997   8.4149 0003024 270.9742  89.1070 14.98319088 55364,6950.227,96.108,574.193,569.99,0.0
56489.0,STARLINK-5923,PAYLOAD,2024-05-03 02:10:13,14.98325497,0.0002984,69.9997,7.9096,270.556,89.5257,-8.3067e-05,-1.084e-05,0.0,0 STARLINK-5923,1 56489U 23064AT  24124.09042987 -.00001084  00000-0 -83067-4 0  9992,2 56489  69.9997   7.9096 0002984 270.5560  89.5257 14.98325497 55392,6950.207,96.107,574.146,569.998,0.0
56489.0,STARLINK-5923,PAYLOAD,2024-05-03 14:59:17,14.98328646,0.0002909,69.9998,6.5638,271.4422,88.6404,-0.00023238,-2.864e-05,0.0,0 STARLINK-5923,1 56489U 23064AT  24124.62451305 -.00002864  00000-0 -23238-3 0  9999,2 56489  69.9998   6.5638 0002909 271.4422  88.6404 14.98328646 55117,6950.197,96.107,574.084,570.04,0.0
56489.0,STARLINK-5923,PAYLOAD,2024-05-03 22:59:58,14.98329884,0.0002938,69.9998,5.7215,268.9878,91.0944,-0.00024631,-3.031e-05,0.0,0 STARLINK-5923,1 56489U 23064AT  24124.95831318 -.00003031  00000-0 -24631-3 0  9996,2 56489  69.9998   5.7215 0002938 268.9878  91.0944 14.98329884 55164,6950.193,96.107,574.1,570.016,0.0
56489.0,STARLINK-5923,PAYLOAD,2024-05-04 02:12:14,14.98329352,0.0002987,69.9998,5.385,269.3776,90.704,-0.00023743,-2.925e-05,0.0,0 STARLINK-5923,1 56489U 23064AT  24125.09183360 -.00002925  00000-0 -23743-3 0  9993,2 56489  69.9998   5.3850 0002987 269.3776  90.7040 14.98329352 55546,6950.195,96.107,574.136,569.984,0.0
56489.0,STARLINK-5923,PAYLOAD,2024-05-05 02:14:15,14.98326275,0.0002976,69.9996,2.86,270.4812,89.6005,0.00015679,1.778e-05,0.0,0 STARLINK-5923,1 56489U 23064AT  24126.09322917  .00001778  00000-0  15679-3 0  9999,2 56489  69.9996   2.8600 0002976 270.4812  89.6005 14.98326275 55696,6950.204,96.107,574.138,570.001,0.0
56489.0,STARLINK-5923,PAYLOAD,2024-05-05 21:27:51,14.98331244,0.0003013,69.9996,0.8401,269.6185,90.4629,0.00018668,2.135e-05,0.0,0 STARLINK-5923,1 56489U 23064AT  24126.89434639  .00002135  00000-0  18668-3 0  9991,2 56489  69.9996   0.8401 0003013 269.6185  90.4629 14.98331244 55457,6950.189,96.107,574.148,569.96,0.0
56489.0,STARLINK-5923,PAYLOAD,2024-05-06 00:40:07,14.98334286,0.0002989,69.9996,0.5032,270.9019,89.1797,0.00020285,2.328e-05,0.0,0 STARLINK-5923,1 56489U 23064AT  24127.02786390  .00002328  00000-0  20285-3 0  9993,2 56489  69.9996   0.5032 0002989 270.9019  89.1797 14.98334286 55838,6950.18,96.107,574.122,569.967,0.0
56489.0,STARLINK-5923,PAYLOAD,2024-05-06 21:29:52,14.98337461,0.0002954,69.9997,358.315,268.4768,91.6052,4.6624e-05,4.63e-06,0.0,0 STARLINK-5923,1 56489U 23064AT  24127.89574374  .00000463  00000-0  46624-4 0  9999,2 56489  69.9997 358.3150 0002954 268.4768  91.6052 14.98337461 55604,6950.17,96.107,574.088,569.982,0.0
56489.0,STARLINK-5923,PAYLOAD,2024-05-07 00:42:08,14.98336992,0.000297,69.9997,357.9784,268.2335,91.8483,3.8466e-05,3.66e-06,0.0,0 STARLINK-5923,1 56489U 23064AT  24128.02926359  .00000366  00000-0  38466-4 0  9996,2 56489  69.9997 357.9784 0002970 268.2335  91.8483 14.98336992 55987,6950.171,96.107,574.1,569.972,0.0
56489.0,STARLINK-5923,PAYLOAD,2024-05-07 08:42:48,14.9833403,0.0003091,69.9994,357.1365,270.3785,89.7019,-3.5037e-05,-5.11e-06,0.0,0 STARLINK-5923,1 56489U 23064AT  24128.36306597 -.00000511  00000-0 -35037-4 0  9994,2 56489  69.9994 357.1365 0003091 270.3785  89.7019 14.98334030 55677,6950.18,96.107,574.194,569.897,0.0
56489.0,STARLINK-5923,PAYLOAD,2024-05-07 19:55:45,14.983281,0.0002572,70.0005,355.9579,270.2336,89.8529,-9.5188e-05,-1.228e-05,0.0,0 STARLINK-5923,1 56489U 23064AT  24128.83039236 -.00001228  00000-0 -95188-4 0  9998,2 56489  70.0005 355.9579 0002572 270.2336  89.8529 14.98328100 56107,6950.199,96.107,573.851,570.276,0.0
56489.0,STARLINK-5923,PAYLOAD,2024-05-07 21:31:54,14.98326538,0.0002731,70.0002,355.7894,269.9288,90.1558,-0.00011903,-1.513e-05,0.0,0 STARLINK-5923,1 56489U 23064AT  24128.89715384 -.00001513  00000-0 -11903-3 0  9998,2 56489  70.0002 355.7894 0002731 269.9288  90.1558 14.98326538 55750,6950.204,96.107,573.967,570.17,0.0
56489.0,STARLINK-5923,PAYLOAD,2024-05-08 08:44:50,14.98327474,0.0002573,70.0007,354.6123,274.1274,85.9591,-2.5615e-05,-3.99e-06,0.0,0 STARLINK-5923,1 56489U 23064AT  24129.36447296 -.00000399  00000-0 -25615-4 0  9992,2 56489  70.0007 354.6123 0002573 274.1274  85.9591 14.98327474 55822,6950.201,96.107,573.854,570.277,0.0
56489.0,STARLINK-5923,PAYLOAD,2024-05-08 21:33:54,14.98333305,0.0002916,69.9999,353.2645,265.1349,94.9477,5.832e-05,6.03e-06,0.0,0 STARLINK-5923,1 56489U 23064AT  24129.89854426  .00000603  00000-0  58320-4 0  9992,2 56489  69.9999 353.2645 0002916 265.1349  94.9477 14.98333305 56269,6950.183,96.107,574.074,570.021,0.0
56489.0,STARLINK-5923,PAYLOAD,2024-05-09 08:46:50,14.98329935,0.0002994,69.9997,352.0863,269.2063,90.8753,8.8752e-05,9.66e-06,0.0,0 STARLINK-5923,1 56489U 23064AT  24130.36586541  .00000966  00000-0  88752-4 0  9990,2 56489  69.9997 352.0863 0002994 269.2063  90.8753 14.98329935 55973,6950.193,96.107,574.139,569.977,0.0
56489.0,STARLINK-5923,PAYLOAD,2024-05-09 21:35:55,14.98330454,0.0003104,69.9996,350.7397,270.7569,89.3235,0.00012963,1.454e-05,0.0,0 STARLINK-5923,1 56489U 23064AT  24130.89994468  .00001454  00000-0  12963-3 0  9992,2 56489  69.9996 350.7397 0003104 270.7569  89.3235 14.98330454 56057,6950.191,96.107,574.214,569.899,0.0
56489.0,STARLINK-5923,PAYLOAD,2024-05-10 00:48:11,14.98334013,0.0003079,69.9997,350.403,270.8007,89.28,0.00016492,1.876e-05,0.0,0 STARLINK-5923,1 56489U 23064AT  24131.03346136  .00001876  00000-0  16492-3 0  9991,2 56489  69.9997 350.4030 0003079 270.8007  89.2800 14.98334013 56432,6950.18,96.107,574.185,569.906,0.0
56489.0,STARLINK-5923,PAYLOAD,2024-05-10 13:37:16,14.98329399,0.0003078,70.0001,349.0564,270.367,89.7136,1.1121e-05,4e-07,0.0,0 STARLINK-5923,1 56489U 23064AT  24131.56754839  .00000040  00000-0  11121-4 0  9999,2 56489  70.0001 349.0564 0003078 270.3670  89.7136 14.98329399 56514,6950.195,96.107,574.199,569.92,0.0
56489.0,STARLINK-5923,PAYLOAD,2024-05-10 21:37:56,14.98333623,0.0002892,69.9999,348.2146,270.6288,89.4539,9.694e-06,2.3e-07,0.0,0 STARLINK-5923,1 56489U 23064AT  24131.90134571  .00000023  00000-0  96940-5 0  9996,2 56489  69.9999 348.2146 0002892 270.6288  89.4539 14.98333623 56200,6950.182,96.107,574.057,570.037,0.0
